;Layer height: 1.50
;Deposition width: 4.00
;Layer 1
G0 X1298.00 Y587.94 Z1.00 nX0.000 nY0.000 nZ-1.000 F6000
G0 X1298.00 Y587.94 Z0.00 nX0.000 nY0.000 nZ-1.000 F6000
G1 X1298.00 Y587.94 Z0.00 nX0.000 nY0.000 nZ-1.000 E0.00 F6000
G1 X1298.00 Y387.94 Z0.00 nX0.000 nY0.000 nZ-1.000 E458.75 F6000
G0 X1248.00 Y387.94 Z0.00 nX0.000 nY0.000 nZ-1.000 F6000
G1 X1248.00 Y387.94 Z0.00 nX0.000 nY0.000 nZ-1.000 E458.75 F6000
G1 X1247.00 Y387.94 Z0.00 nX0.000 nY0.000 nZ-1.000 E461.05 F6000
G1 X253.00 Y387.94 Z0.68 nX0.000 nY0.000 nZ-1.000 E2741.05 F6000
G1 X252.00 Y387.94 Z0.68 nX0.000 nY0.000 nZ-1.000 E2743.34 F6000
G1 X252.00 Y388.94 Z0.68 nX0.000 nY0.000 nZ-1.000 E2745.63 F6000
G1 X252.00 Y482.94 Z0.75 nX0.000 nY0.000 nZ-1.000 E2961.25 F6000
G1 X252.00 Y483.94 Z0.75 nX0.000 nY0.000 nZ-1.000 E2963.54 F6000
G1 X253.00 Y483.94 Z0.75 nX0.000 nY0.000 nZ-1.000 E2965.84 F6000
G1 X1247.00 Y483.94 Z1.43 nX0.000 nY0.000 nZ-1.000 E5245.84 F6000
G1 X1248.00 Y483.94 Z1.43 nX0.000 nY0.000 nZ-1.000 E5248.13 F6000
G1 X1248.00 Y482.94 Z1.43 nX0.000 nY0.000 nZ-1.000 E5250.42 F6000
G1 X1248.00 Y435.94 Z1.47 nX0.000 nY0.000 nZ-1.000 E5358.23 F6000
G1 X1248.00 Y388.94 Z1.50 nX0.000 nY0.000 nZ-1.000 E5466.04 F6000
G1 X1248.00 Y387.94 Z1.50 nX0.000 nY0.000 nZ-1.000 E5468.33 F6000
;Layer 2
G1 X1247.00 Y387.94 Z1.50 nX0.000 nY0.000 nZ-1.000 E5470.63 F6000
G1 X252.00 Y387.94 Z2.18 nX0.000 nY0.000 nZ-1.000 E7752.92 F6000
G1 X252.00 Y483.94 Z2.25 nX0.000 nY0.000 nZ-1.000 E7973.12 F6000
G1 X1248.00 Y483.94 Z2.93 nX0.000 nY0.000 nZ-1.000 E10257.71 F6000
G1 X1248.00 Y387.94 Z3.00 nX0.000 nY0.000 nZ-1.000 E10477.91 F6000
;Layer 3
G1 X1247.00 Y387.94 Z3.00 nX0.000 nY0.000 nZ-1.000 E10480.20 F6000
G1 X252.00 Y387.94 Z3.68 nX0.000 nY0.000 nZ-1.000 E12762.50 F6000
G1 X252.00 Y483.94 Z3.75 nX0.000 nY0.000 nZ-1.000 E12982.70 F6000
G1 X1248.00 Y483.94 Z4.43 nX0.000 nY0.000 nZ-1.000 E15267.29 F6000
G1 X1248.00 Y387.94 Z4.50 nX0.000 nY0.000 nZ-1.000 E15487.49 F6000
;Layer 4
G1 X1247.00 Y387.94 Z4.50 nX0.000 nY0.000 nZ-1.000 E15489.78 F6000
G1 X252.00 Y387.94 Z5.18 nX0.000 nY0.000 nZ-1.000 E17772.08 F6000
G1 X252.00 Y483.94 Z5.25 nX0.000 nY0.000 nZ-1.000 E17992.28 F6000
G1 X1248.00 Y483.94 Z5.93 nX0.000 nY0.000 nZ-1.000 E20276.87 F6000
G1 X1248.00 Y387.94 Z6.00 nX0.000 nY0.000 nZ-1.000 E20497.07 F6000
;Layer 5
G1 X1247.00 Y387.94 Z6.00 nX0.000 nY0.000 nZ-1.000 E20499.36 F6000
G1 X252.00 Y387.94 Z6.68 nX0.000 nY0.000 nZ-1.000 E22781.66 F6000
G1 X252.00 Y483.94 Z6.75 nX0.000 nY0.000 nZ-1.000 E23001.86 F6000
G1 X1248.00 Y483.94 Z7.43 nX0.000 nY0.000 nZ-1.000 E25286.45 F6000
G1 X1248.00 Y387.94 Z7.50 nX0.000 nY0.000 nZ-1.000 E25506.65 F6000
;Layer 6
G1 X1247.00 Y387.94 Z7.50 nX0.000 nY0.000 nZ-1.000 E25508.94 F6000
G1 X252.00 Y387.94 Z8.18 nX0.000 nY0.000 nZ-1.000 E27791.24 F6000
G1 X252.00 Y483.94 Z8.25 nX0.000 nY0.000 nZ-1.000 E28011.44 F6000
G1 X1248.00 Y483.94 Z8.93 nX0.000 nY0.000 nZ-1.000 E30296.02 F6000
G1 X1248.00 Y387.94 Z9.00 nX0.000 nY0.000 nZ-1.000 E30516.23 F6000
;Layer 7
G1 X1247.00 Y387.94 Z9.00 nX0.000 nY0.000 nZ-1.000 E30518.52 F6000
G1 X252.00 Y387.94 Z9.68 nX0.000 nY0.000 nZ-1.000 E32800.81 F6000
G1 X252.00 Y483.94 Z9.75 nX0.000 nY0.000 nZ-1.000 E33021.02 F6000
G1 X1248.00 Y483.94 Z10.43 nX0.000 nY0.000 nZ-1.000 E35305.60 F6000
G1 X1248.00 Y387.94 Z10.50 nX0.000 nY0.000 nZ-1.000 E35525.81 F6000
;Layer 8
G1 X1247.00 Y387.94 Z10.50 nX0.000 nY0.000 nZ-1.000 E35528.10 F6000
G1 X252.00 Y387.94 Z11.18 nX0.000 nY0.000 nZ-1.000 E37810.39 F6000
G1 X252.00 Y483.94 Z11.25 nX0.000 nY0.000 nZ-1.000 E38030.59 F6000
G1 X1248.00 Y483.94 Z11.93 nX0.000 nY0.000 nZ-1.000 E40315.18 F6000
G1 X1248.00 Y387.94 Z12.00 nX0.000 nY0.000 nZ-1.000 E40535.38 F6000
;Layer 9
G1 X1247.00 Y387.94 Z12.00 nX0.000 nY0.000 nZ-1.000 E40537.68 F6000
G1 X252.00 Y387.94 Z12.68 nX0.000 nY0.000 nZ-1.000 E42819.97 F6000
G1 X252.00 Y483.94 Z12.75 nX0.000 nY0.000 nZ-1.000 E43040.17 F6000
G1 X1248.00 Y483.94 Z13.43 nX0.000 nY0.000 nZ-1.000 E45324.76 F6000
G1 X1248.00 Y387.94 Z13.50 nX0.000 nY0.000 nZ-1.000 E45544.96 F6000
;Layer 10
G1 X1247.00 Y387.94 Z13.50 nX0.000 nY0.000 nZ-1.000 E45547.26 F6000
G1 X252.00 Y387.94 Z14.18 nX0.000 nY0.000 nZ-1.000 E47829.55 F6000
G1 X252.00 Y483.94 Z14.25 nX0.000 nY0.000 nZ-1.000 E48049.75 F6000
G1 X1248.00 Y483.94 Z14.93 nX0.000 nY0.000 nZ-1.000 E50334.34 F6000
G1 X1248.00 Y387.94 Z15.00 nX0.000 nY0.000 nZ-1.000 E50554.54 F6000
;Layer 11
G1 X1247.00 Y387.94 Z15.00 nX0.000 nY0.000 nZ-1.000 E50556.84 F6000
G1 X252.00 Y387.94 Z15.68 nX0.000 nY0.000 nZ-1.000 E52839.13 F6000
G1 X252.00 Y483.94 Z15.75 nX0.000 nY0.000 nZ-1.000 E53059.33 F6000
G1 X1248.00 Y483.94 Z16.43 nX0.000 nY0.000 nZ-1.000 E55343.92 F6000
G1 X1248.00 Y387.94 Z16.50 nX0.000 nY0.000 nZ-1.000 E55564.12 F6000
;Layer 12
G1 X1247.00 Y387.94 Z16.50 nX0.000 nY0.000 nZ-1.000 E55566.41 F6000
G1 X252.00 Y387.94 Z17.18 nX0.000 nY0.000 nZ-1.000 E57848.71 F6000
G1 X252.00 Y483.94 Z17.25 nX0.000 nY0.000 nZ-1.000 E58068.91 F6000
G1 X1248.00 Y483.94 Z17.93 nX0.000 nY0.000 nZ-1.000 E60353.50 F6000
G1 X1248.00 Y387.94 Z18.00 nX0.000 nY0.000 nZ-1.000 E60573.70 F6000
;Layer 13
G1 X1247.00 Y387.94 Z18.00 nX0.000 nY0.000 nZ-1.000 E60575.99 F6000
G1 X252.00 Y387.94 Z18.68 nX0.000 nY0.000 nZ-1.000 E62858.29 F6000
G1 X252.00 Y483.94 Z18.75 nX0.000 nY0.000 nZ-1.000 E63078.49 F6000
G1 X1248.00 Y483.94 Z19.43 nX0.000 nY0.000 nZ-1.000 E65363.08 F6000
G1 X1248.00 Y387.94 Z19.50 nX0.000 nY0.000 nZ-1.000 E65583.28 F6000
G1 X1247.00 Y387.94 Z19.50 nX0.000 nY0.000 nZ-1.000 E65585.57 F6000
G1 X253.00 Y387.94 Z19.50 nX0.000 nY0.000 nZ-1.000 E67865.57 F6000
G1 X252.00 Y387.94 Z19.50 nX0.000 nY0.000 nZ-1.000 E67867.87 F6000
G1 X252.00 Y388.94 Z19.50 nX0.000 nY0.000 nZ-1.000 E67870.16 F6000
G1 X252.00 Y482.94 Z19.50 nX0.000 nY0.000 nZ-1.000 E68085.77 F6000
G1 X252.00 Y483.94 Z19.50 nX0.000 nY0.000 nZ-1.000 E68088.07 F6000
G1 X253.00 Y483.94 Z19.50 nX0.000 nY0.000 nZ-1.000 E68090.36 F6000
G1 X1247.00 Y483.94 Z19.50 nX0.000 nY0.000 nZ-1.000 E70370.36 F6000
G1 X1248.00 Y483.94 Z19.50 nX0.000 nY0.000 nZ-1.000 E70372.66 F6000
G1 X1248.00 Y482.94 Z19.50 nX0.000 nY0.000 nZ-1.000 E70374.95 F6000
G1 X1248.00 Y435.94 Z19.50 nX0.000 nY0.000 nZ-1.000 E70482.76 F6000
G1 X1248.00 Y388.94 Z19.50 nX0.000 nY0.000 nZ-1.000 E70590.56 F6000
G1 X1248.00 Y387.94 Z19.50 nX0.000 nY0.000 nZ-1.000 E70592.86 F6000
